SALSAT                  
1 46495U 20068K   26064.94066432  .00011056  00000+0  40601-3 0  9992
2 46495  97.8854  61.8531 0008538 312.5830  47.4688 15.28092628299584
XW-3 (CAS-9)            
1 50466U 21131B   26065.31049303  .00000653  00000+0  21568-3 0  9999
2 50466  98.4966 158.2853 0004970  58.2387 301.9286 14.41245616220298
GREENCUBE (IO-117)      
1 53109U 22080E   26065.15298404 -.00000003  00000+0  00000+0 0  9994
2 53109  70.1629 334.0832 0009028 311.9360  48.0530  6.42583089 85446
UMKA 1 (RS40S)          
1 57172U 23091G   26065.21378171  .00007778  00000+0  36820-3 0  9996
2 57172  97.5183 124.3340 0014623 116.8617 243.4114 15.19533176148362
CUBESX-HSE 3 (RS42S)    
1 57178U 23091N   26065.29057659  .00015111  00000+0  54621-3 0  9994
2 57178  97.5211 129.7265 0012805  98.0296 262.2397 15.28474450148696
MONITOR-3 (RS58S)       
1 57180U 23091Q   26065.30220847  .00012995  00000+0  51215-3 0  9993
2 57180  97.5207 128.0973 0013723 102.5108 257.7666 15.25632321148592
MONITOR-4 (RS57S)       
1 57182U 23091S   26065.28752377  .00011661  00000+0  45879-3 0  9998
2 57182  97.5200 128.0473 0013752 103.0578 257.2196 15.25716009148590
MONITOR-2 (RS39S)       
1 57184U 23091U   26065.31109191  .00007171  00000+0  35660-3 0  9992
2 57184  97.5205 124.2675 0012973 109.1971 251.0668 15.17862648148348
SVYATOBOR 1 (RS60S)     
1 57187U 23091X   26065.28759448  .00010155  00000+0  41244-3 0  9998
2 57187  97.5211 128.6152 0011278  95.4335 264.8189 15.24720024148624
VIZARD-METEO (RS38S)    
1 57189U 23091Z   26065.23776098  .00017535  00000+0  55841-3 0  9992
2 57189  97.5201 132.8700 0008927  82.9775 277.2481 15.32591098148907
NANOZOND 1 (RS49S)      
1 57190U 23091AA  26063.78486012  .00233103  00000+0  17099-2 0  9999
2 57190  97.5090 143.6448 0000456  27.7219 332.4068 15.72447637149508
POLYTECH-UNIVERSE 3 (R*)
1 57191U 23091AB  26065.28558859  .00006063  00000+0  30005-3 0  9992
2 57191  97.5182 123.7493 0017254 124.9452 235.3405 15.18043908148332
UTMN 2 (RS27S)          
1 57203U 23091AP  26065.30082293  .00014982  00000+0  52766-3 0  9990
2 57203  97.5203 131.2437 0009873  87.2071 273.0299 15.29358035148802
KUZGTU 1 (RS47S)        
1 57217U 23091AV  26065.19835997  .00014007  00000+0  52411-3 0  9994
2 57217  97.5186 128.7582 0012984 100.9058 259.3643 15.27349249148641
SONATE-2                
1 59112U 24043Q   26064.91783608  .00038527  00000+0  66236-3 0  9991
2 59112  97.5393 209.6668 0007793 219.4071 140.6614 15.50996963111843
MESAT1                  
1 60209U 24125G   26065.09284945  .00043105  00000+0  68325-3 0  9990
2 60209  97.2455 280.9007 0011300 236.8573 123.1597 15.53208191 93517
