[{"OBJECT_NAME":"SALSAT","OBJECT_ID":"2020-068K","EPOCH":"2026-03-05T22:34:33.397248","MEAN_MOTION":15.28092628,"ECCENTRICITY":0.00085381,"INCLINATION":97.8854,"RA_OF_ASC_NODE":61.8531,"ARG_OF_PERICENTER":312.583,"MEAN_ANOMALY":47.4688,"EPHEMERIS_TYPE":0,"CLASSIFICATION_TYPE":"U","NORAD_CAT_ID":46495,"ELEMENT_SET_NO":999,"REV_AT_EPOCH":29958,"BSTAR":0.00040601098,"MEAN_MOTION_DOT":0.00011056,"MEAN_MOTION_DDOT":0},{"OBJECT_NAME":"XW-3 (CAS-9)","OBJECT_ID":"2021-131B","EPOCH":"2026-03-06T07:27:06.597792","MEAN_MOTION":14.41245616,"ECCENTRICITY":0.00049701,"INCLINATION":98.4966,"RA_OF_ASC_NODE":158.2853,"ARG_OF_PERICENTER":58.2387,"MEAN_ANOMALY":301.9286,"EPHEMERIS_TYPE":0,"CLASSIFICATION_TYPE":"U","NORAD_CAT_ID":50466,"ELEMENT_SET_NO":999,"REV_AT_EPOCH":22029,"BSTAR":0.00021567653,"MEAN_MOTION_DOT":6.53e-6,"MEAN_MOTION_DDOT":0},{"OBJECT_NAME":"GREENCUBE (IO-117)","OBJECT_ID":"2022-080E","EPOCH":"2026-03-06T03:40:17.821056","MEAN_MOTION":6.42583089,"ECCENTRICITY":0.00090284,"INCLINATION":70.1629,"RA_OF_ASC_NODE":334.0832,"ARG_OF_PERICENTER":311.936,"MEAN_ANOMALY":48.053,"EPHEMERIS_TYPE":0,"CLASSIFICATION_TYPE":"U","NORAD_CAT_ID":53109,"ELEMENT_SET_NO":999,"REV_AT_EPOCH":8544,"BSTAR":0,"MEAN_MOTION_DOT":-3.0e-8,"MEAN_MOTION_DDOT":0},{"OBJECT_NAME":"UMKA 1 (RS40S)","OBJECT_ID":"2023-091G","EPOCH":"2026-03-06T05:07:50.739744","MEAN_MOTION":15.19533176,"ECCENTRICITY":0.00146233,"INCLINATION":97.5183,"RA_OF_ASC_NODE":124.334,"ARG_OF_PERICENTER":116.8617,"MEAN_ANOMALY":243.4114,"EPHEMERIS_TYPE":0,"CLASSIFICATION_TYPE":"U","NORAD_CAT_ID":57172,"ELEMENT_SET_NO":999,"REV_AT_EPOCH":14836,"BSTAR":0.00036819922,"MEAN_MOTION_DOT":7.778e-5,"MEAN_MOTION_DDOT":0},{"OBJECT_NAME":"CUBESX-HSE 3 (RS42S)","OBJECT_ID":"2023-091N","EPOCH":"2026-03-06T06:58:25.817376","MEAN_MOTION":15.2847445,"ECCENTRICITY":0.0012805,"INCLINATION":97.5211,"RA_OF_ASC_NODE":129.7265,"ARG_OF_PERICENTER":98.0296,"MEAN_ANOMALY":262.2397,"EPHEMERIS_TYPE":0,"CLASSIFICATION_TYPE":"U","NORAD_CAT_ID":57178,"ELEMENT_SET_NO":999,"REV_AT_EPOCH":14869,"BSTAR":0.00054621071,"MEAN_MOTION_DOT":0.00015111,"MEAN_MOTION_DDOT":0},{"OBJECT_NAME":"MONITOR-3 (RS58S)","OBJECT_ID":"2023-091Q","EPOCH":"2026-03-06T07:15:10.811808","MEAN_MOTION":15.25632321,"ECCENTRICITY":0.00137239,"INCLINATION":97.5207,"RA_OF_ASC_NODE":128.0973,"ARG_OF_PERICENTER":102.5108,"MEAN_ANOMALY":257.7666,"EPHEMERIS_TYPE":0,"CLASSIFICATION_TYPE":"U","NORAD_CAT_ID":57180,"ELEMENT_SET_NO":999,"REV_AT_EPOCH":14859,"BSTAR":0.00051215451,"MEAN_MOTION_DOT":0.00012995,"MEAN_MOTION_DDOT":0},{"OBJECT_NAME":"MONITOR-4 (RS57S)","OBJECT_ID":"2023-091S","EPOCH":"2026-03-06T06:54:02.053728","MEAN_MOTION":15.25716009,"ECCENTRICITY":0.00137524,"INCLINATION":97.52,"RA_OF_ASC_NODE":128.0473,"ARG_OF_PERICENTER":103.0578,"MEAN_ANOMALY":257.2196,"EPHEMERIS_TYPE":0,"CLASSIFICATION_TYPE":"U","NORAD_CAT_ID":57182,"ELEMENT_SET_NO":999,"REV_AT_EPOCH":14859,"BSTAR":0.00045878995,"MEAN_MOTION_DOT":0.00011661,"MEAN_MOTION_DDOT":0},{"OBJECT_NAME":"MONITOR-2 (RS39S)","OBJECT_ID":"2023-091U","EPOCH":"2026-03-06T07:27:58.341024","MEAN_MOTION":15.17862648,"ECCENTRICITY":0.00129733,"INCLINATION":97.5205,"RA_OF_ASC_NODE":124.2675,"ARG_OF_PERICENTER":109.1971,"MEAN_ANOMALY":251.0668,"EPHEMERIS_TYPE":0,"CLASSIFICATION_TYPE":"U","NORAD_CAT_ID":57184,"ELEMENT_SET_NO":999,"REV_AT_EPOCH":14834,"BSTAR":0.00035660242,"MEAN_MOTION_DOT":7.171e-5,"MEAN_MOTION_DDOT":0},{"OBJECT_NAME":"SVYATOBOR 1 (RS60S)","OBJECT_ID":"2023-091X","EPOCH":"2026-03-06T06:54:08.163072","MEAN_MOTION":15.24720024,"ECCENTRICITY":0.00112786,"INCLINATION":97.5211,"RA_OF_ASC_NODE":128.6152,"ARG_OF_PERICENTER":95.4335,"MEAN_ANOMALY":264.8189,"EPHEMERIS_TYPE":0,"CLASSIFICATION_TYPE":"U","NORAD_CAT_ID":57187,"ELEMENT_SET_NO":999,"REV_AT_EPOCH":14862,"BSTAR":0.00041243962,"MEAN_MOTION_DOT":0.00010155,"MEAN_MOTION_DDOT":0},{"OBJECT_NAME":"VIZARD-METEO (RS38S)","OBJECT_ID":"2023-091Z","EPOCH":"2026-03-06T05:42:22.548672","MEAN_MOTION":15.32591098,"ECCENTRICITY":0.00089271,"INCLINATION":97.5201,"RA_OF_ASC_NODE":132.87,"ARG_OF_PERICENTER":82.9775,"MEAN_ANOMALY":277.2481,"EPHEMERIS_TYPE":0,"CLASSIFICATION_TYPE":"U","NORAD_CAT_ID":57189,"ELEMENT_SET_NO":999,"REV_AT_EPOCH":14890,"BSTAR":0.00055841149,"MEAN_MOTION_DOT":0.00017535,"MEAN_MOTION_DDOT":0},{"OBJECT_NAME":"NANOZOND 1 (RS49S)","OBJECT_ID":"2023-091AA","EPOCH":"2026-03-04T18:50:11.914368","MEAN_MOTION":15.72447637,"ECCENTRICITY":4.56e-5,"INCLINATION":97.509,"RA_OF_ASC_NODE":143.6448,"ARG_OF_PERICENTER":27.7219,"MEAN_ANOMALY":332.4068,"EPHEMERIS_TYPE":0,"CLASSIFICATION_TYPE":"U","NORAD_CAT_ID":57190,"ELEMENT_SET_NO":999,"REV_AT_EPOCH":14950,"BSTAR":0.0017099321,"MEAN_MOTION_DOT":0.00233103,"MEAN_MOTION_DDOT":0},{"OBJECT_NAME":"POLYTECH-UNIVERSE 3 (RS46S)","OBJECT_ID":"2023-091AB","EPOCH":"2026-03-06T06:51:14.854176","MEAN_MOTION":15.18043908,"ECCENTRICITY":0.00172542,"INCLINATION":97.5182,"RA_OF_ASC_NODE":123.7493,"ARG_OF_PERICENTER":124.9452,"MEAN_ANOMALY":235.3405,"EPHEMERIS_TYPE":0,"CLASSIFICATION_TYPE":"U","NORAD_CAT_ID":57191,"ELEMENT_SET_NO":999,"REV_AT_EPOCH":14833,"BSTAR":0.00030004894,"MEAN_MOTION_DOT":6.063e-5,"MEAN_MOTION_DDOT":0},{"OBJECT_NAME":"UTMN 2 (RS27S)","OBJECT_ID":"2023-091AP","EPOCH":"2026-03-06T07:13:11.101152","MEAN_MOTION":15.29358035,"ECCENTRICITY":0.0009873,"INCLINATION":97.5203,"RA_OF_ASC_NODE":131.2437,"ARG_OF_PERICENTER":87.2071,"MEAN_ANOMALY":273.0299,"EPHEMERIS_TYPE":0,"CLASSIFICATION_TYPE":"U","NORAD_CAT_ID":57203,"ELEMENT_SET_NO":999,"REV_AT_EPOCH":14880,"BSTAR":0.00052766052,"MEAN_MOTION_DOT":0.00014982,"MEAN_MOTION_DDOT":0},{"OBJECT_NAME":"KUZGTU 1 (RS47S)","OBJECT_ID":"2023-091AV","EPOCH":"2026-03-06T04:45:38.301408","MEAN_MOTION":15.27349249,"ECCENTRICITY":0.00129845,"INCLINATION":97.5186,"RA_OF_ASC_NODE":128.7582,"ARG_OF_PERICENTER":100.9058,"MEAN_ANOMALY":259.3643,"EPHEMERIS_TYPE":0,"CLASSIFICATION_TYPE":"U","NORAD_CAT_ID":57217,"ELEMENT_SET_NO":999,"REV_AT_EPOCH":14864,"BSTAR":0.00052411324,"MEAN_MOTION_DOT":0.00014007,"MEAN_MOTION_DDOT":0},{"OBJECT_NAME":"SONATE-2","OBJECT_ID":"2024-043Q","EPOCH":"2026-03-05T22:01:41.037312","MEAN_MOTION":15.50996963,"ECCENTRICITY":0.00077932,"INCLINATION":97.5393,"RA_OF_ASC_NODE":209.6668,"ARG_OF_PERICENTER":219.4071,"MEAN_ANOMALY":140.6614,"EPHEMERIS_TYPE":0,"CLASSIFICATION_TYPE":"U","NORAD_CAT_ID":59112,"ELEMENT_SET_NO":999,"REV_AT_EPOCH":11184,"BSTAR":0.00066236431,"MEAN_MOTION_DOT":0.00038527,"MEAN_MOTION_DDOT":0},{"OBJECT_NAME":"MESAT1","OBJECT_ID":"2024-125G","EPOCH":"2026-03-06T02:13:42.192480","MEAN_MOTION":15.53208191,"ECCENTRICITY":0.00113007,"INCLINATION":97.2455,"RA_OF_ASC_NODE":280.9007,"ARG_OF_PERICENTER":236.8573,"MEAN_ANOMALY":123.1597,"EPHEMERIS_TYPE":0,"CLASSIFICATION_TYPE":"U","NORAD_CAT_ID":60209,"ELEMENT_SET_NO":999,"REV_AT_EPOCH":9351,"BSTAR":0.00068325398,"MEAN_MOTION_DOT":0.00043105,"MEAN_MOTION_DDOT":0}]
